{"type": "FeatureCollection", "features": [ {"type": "Feature", "properties": {"norad_id": 33867, "name": "IRIDIUM 33 DEB", "group": "iridium-33-debris", "lat": -15.588871300742115, "lon": -8.309264969057317, "alt_km": 395.7874534073944, "timestamp": "2025-12-07T16:44:04.297157+00:00", "meta": {"OBJECT_NAME": "IRIDIUM 33 DEB", "OBJECT_ID": "1997-051AL", "EPOCH": "2025-12-06T13:04:06.627360", "MEAN_MOTION": 15.58002769, "ECCENTRICITY": 0.00124504, "INCLINATION": 86.3617, "RA_OF_ASC_NODE": 353.2987, "ARG_OF_PERICENTER": 93.4662, "MEAN_ANOMALY": 266.8026, "EPHEMERIS_TYPE": 0, "CLASSIFICATION_TYPE": "U", "NORAD_CAT_ID": 33867, "ELEMENT_SET_NO": 999, "REV_AT_EPOCH": 89414, "BSTAR": 0.0092198689, "MEAN_MOTION_DOT": 0.00758101, "MEAN_MOTION_DDOT": 0}, "tle": {"line1": "1 33867U 97051AL  25340.54452115  .00758101  00000+0  92199-2 0  9993", "line2": "2 33867  86.3617 353.2987 0012450  93.4662 266.8026 15.58002769894148"}}, "geometry": {"type": "Point", "coordinates": [-8.309264969057317, -15.588871300742115]}}, {"type": "Feature", "properties": {"norad_id": 33870, "name": "IRIDIUM 33 DEB", "group": "iridium-33-debris", "lat": 16.87105022796257, "lon": 61.523900856615924, "alt_km": 754.8138062324124, "timestamp": "2025-12-07T16:44:04.297169+00:00", "meta": {"OBJECT_NAME": "IRIDIUM 33 DEB", "OBJECT_ID": "1997-051AP", "EPOCH": "2025-12-06T17:58:19.083072", "MEAN_MOTION": 14.45801384, "ECCENTRICITY": 0.00208292, "INCLINATION": 86.3753, "RA_OF_ASC_NODE": 60.8287, "ARG_OF_PERICENTER": 197.8874, "MEAN_ANOMALY": 285.7545, "EPHEMERIS_TYPE": 0, "CLASSIFICATION_TYPE": "U", "NORAD_CAT_ID": 33870, "ELEMENT_SET_NO": 999, "REV_AT_EPOCH": 88050, "BSTAR": 0.0014601721, "MEAN_MOTION_DOT": 5.211e-05, "MEAN_MOTION_DDOT": 0}, "tle": {"line1": "1 33870U 97051AP  25340.74883198  .00005211  00000+0  14602-2 0  9998", "line2": "2 33870  86.3753  60.8287 0020829 197.8874 285.7545 14.45801384880506"}}, "geometry": {"type": "Point", "coordinates": [61.523900856615924, 16.87105022796257]}}, {"type": "Feature", "properties": {"norad_id": 33881, "name": "IRIDIUM 33 DEB", "group": "iridium-33-debris", "lat": 51.22144467850848, "lon": 113.44382996645295, "alt_km": 732.9905290892057, "timestamp": "2025-12-07T16:44:04.297180+00:00", "meta": {"OBJECT_NAME": "IRIDIUM 33 DEB", "OBJECT_ID": "1997-051BA", "EPOCH": "2025-12-06T21:17:41.557056", "MEAN_MOTION": 14.5641101, "ECCENTRICITY": 0.00613255, "INCLINATION": 86.3871, "RA_OF_ASC_NODE": 109.2851, "ARG_OF_PERICENTER": 193.6863, "MEAN_ANOMALY": 294.0884, "EPHEMERIS_TYPE": 0, "CLASSIFICATION_TYPE": "U", "NORAD_CAT_ID": 33881, "ELEMENT_SET_NO": 999, "REV_AT_EPOCH": 87415, "BSTAR": 0.0034816838, "MEAN_MOTION_DOT": 0.00015893, "MEAN_MOTION_DDOT": 0}, "tle": {"line1": "1 33881U 97051BA  25340.88728654  .00015893  00000+0  34817-2 0  9997", "line2": "2 33881  86.3871 109.2851 0061325 193.6863 294.0884 14.56411010874150"}}, "geometry": {"type": "Point", "coordinates": [113.44382996645295, 51.22144467850848]}}, {"type": "Feature", "properties": {"norad_id": 33884, "name": "IRIDIUM 33 DEB", "group": "iridium-33-debris", "lat": -19.477554987412123, "lon": 10.807513383084817, "alt_km": 635.9173461925002, "timestamp": "2025-12-07T16:44:04.297191+00:00", "meta": {"OBJECT_NAME": "IRIDIUM 33 DEB", "OBJECT_ID": "1997-051BD", "EPOCH": "2025-12-06T20:30:21.095712", "MEAN_MOTION": 14.77262355, "ECCENTRICITY": 0.00103084, "INCLINATION": 86.3691, "RA_OF_ASC_NODE": 12.4747, "ARG_OF_PERICENTER": 345.6564, "MEAN_ANOMALY": 195.3939, "EPHEMERIS_TYPE": 0, "CLASSIFICATION_TYPE": "U", "NORAD_CAT_ID": 33884, "ELEMENT_SET_NO": 999, "REV_AT_EPOCH": 88760, "BSTAR": 0.0023937107, "MEAN_MOTION_DOT": 0.00017032, "MEAN_MOTION_DDOT": 0}, "tle": {"line1": "1 33884U 97051BD  25340.85441083  .00017032  00000+0  23937-2 0  9993", "line2": "2 33884  86.3691  12.4747 0010308 345.6564 195.3939 14.77262355887601"}}, "geometry": {"type": "Point", "coordinates": [10.807513383084817, -19.477554987412123]}}, {"type": "Feature", "properties": {"norad_id": 33886, "name": "IRIDIUM 33 DEB", "group": "iridium-33-debris", "lat": -64.73858416053297, "lon": 61.64792939058615, "alt_km": 771.7121965451161, "timestamp": "2025-12-07T16:44:04.297202+00:00", "meta": {"OBJECT_NAME": "IRIDIUM 33 DEB", "OBJECT_ID": "1997-051BF", "EPOCH": "2025-12-06T19:52:39.313056", "MEAN_MOTION": 14.3604107, "ECCENTRICITY": 0.0012064, "INCLINATION": 86.3832, "RA_OF_ASC_NODE": 69.7167, "ARG_OF_PERICENTER": 264.4153, "MEAN_ANOMALY": 220.7089, "EPHEMERIS_TYPE": 0, "CLASSIFICATION_TYPE": "U", "NORAD_CAT_ID": 33886, "ELEMENT_SET_NO": 999, "REV_AT_EPOCH": 87967, "BSTAR": 0.00039145812, "MEAN_MOTION_DOT": 1.158e-05, "MEAN_MOTION_DDOT": 0}, "tle": {"line1": "1 33886U 97051BF  25340.82823279  .00001158  00000+0  39146-3 0  9995", "line2": "2 33886  86.3832  69.7167 0012064 264.4153 220.7089 14.36041070879675"}}, "geometry": {"type": "Point", "coordinates": [61.64792939058615, -64.73858416053297]}}, {"type": "Feature", "properties": {"norad_id": 33887, "name": "IRIDIUM 33 DEB", "group": "iridium-33-debris", "lat": -30.03697890268379, "lon": -172.29312374814782, "alt_km": 771.5590131419713, "timestamp": "2025-12-07T16:44:04.297214+00:00", "meta": {"OBJECT_NAME": "IRIDIUM 33 DEB", "OBJECT_ID": "1997-051BG", "EPOCH": "2025-12-06T20:31:49.734336", "MEAN_MOTION": 14.37213309, "ECCENTRICITY": 0.00040893, "INCLINATION": 86.3048, "RA_OF_ASC_NODE": 5.928, "ARG_OF_PERICENTER": 254.3526, "MEAN_ANOMALY": 282.8028, "EPHEMERIS_TYPE": 0, "CLASSIFICATION_TYPE": "U", "NORAD_CAT_ID": 33887, "ELEMENT_SET_NO": 999, "REV_AT_EPOCH": 88080, "BSTAR": 0.00026751053, "MEAN_MOTION_DOT": 8.15e-06, "MEAN_MOTION_DDOT": 0}, "tle": {"line1": "1 33887U 97051BG  25340.85543674  .00000815  00000+0  26751-3 0  9994", "line2": "2 33887  86.3048   5.9280 0004089 254.3526 282.8028 14.37213309880809"}}, "geometry": {"type": "Point", "coordinates": [-172.29312374814782, -30.03697890268379]}}, {"type": "Feature", "properties": {"norad_id": 33953, "name": "IRIDIUM 33 DEB", "group": "iridium-33-debris", "lat": 81.22019842700132, "lon": -148.19657805835791, "alt_km": 688.9073493379574, "timestamp": "2025-12-07T16:44:04.297226+00:00", "meta": {"OBJECT_NAME": "IRIDIUM 33 DEB", "OBJECT_ID": "1997-051BN", "EPOCH": "2025-12-06T22:56:34.592352", "MEAN_MOTION": 14.55236299, "ECCENTRICITY": 0.00184676, "INCLINATION": 86.3847, "RA_OF_ASC_NODE": 56.2896, "ARG_OF_PERICENTER": 120.4605, "MEAN_ANOMALY": 56.4432, "EPHEMERIS_TYPE": 0, "CLASSIFICATION_TYPE": "U", "NORAD_CAT_ID": 33953, "ELEMENT_SET_NO": 999, "REV_AT_EPOCH": 88219, "BSTAR": 0.0019623469, "MEAN_MOTION_DOT": 8.534e-05, "MEAN_MOTION_DDOT": 0}, "tle": {"line1": "1 33953U 97051BN  25340.95595593  .00008534  00000+0  19623-2 0  9991", "line2": "2 33953  86.3847  56.2896 0018467 120.4605  56.4432 14.55236299882199"}}, "geometry": {"type": "Point", "coordinates": [-148.19657805835791, 81.22019842700132]}}, {"type": "Feature", "properties": {"norad_id": 33960, "name": "IRIDIUM 33 DEB", "group": "iridium-33-debris", "lat": 82.99735106515715, "lon": -35.87360551668251, "alt_km": 601.928299420043, "timestamp": "2025-12-07T16:44:04.297237+00:00", "meta": {"OBJECT_NAME": "IRIDIUM 33 DEB", "OBJECT_ID": "1997-051BV", "EPOCH": "2025-12-06T21:11:12.890976", "MEAN_MOTION": 14.84724229, "ECCENTRICITY": 0.00072807, "INCLINATION": 86.2539, "RA_OF_ASC_NODE": 292.274, "ARG_OF_PERICENTER": 70.5622, "MEAN_ANOMALY": 342.8515, "EPHEMERIS_TYPE": 0, "CLASSIFICATION_TYPE": "U", "NORAD_CAT_ID": 33960, "ELEMENT_SET_NO": 999, "REV_AT_EPOCH": 88780, "BSTAR": 0.0054098314, "MEAN_MOTION_DOT": 0.00046117, "MEAN_MOTION_DDOT": 0}, "tle": {"line1": "1 33960U 97051BV  25340.88278809  .00046117  00000+0  54098-2 0  9993", "line2": "2 33960  86.2539 292.2740 0007280  70.5622 342.8515 14.84724229887803"}}, "geometry": {"type": "Point", "coordinates": [-35.87360551668251, 82.99735106515715]}}, {"type": "Feature", "properties": {"norad_id": 33966, "name": "IRIDIUM 33 DEB", "group": "iridium-33-debris", "lat": -32.42713151341754, "lon": 45.894841872581516, "alt_km": 735.7944426300301, "timestamp": "2025-12-07T16:44:04.297249+00:00", "meta": {"OBJECT_NAME": "IRIDIUM 33 DEB", "OBJECT_ID": "1997-051CB", "EPOCH": "2025-12-06T23:13:13.155168", "MEAN_MOTION": 14.4955764, "ECCENTRICITY": 0.00067523, "INCLINATION": 86.3928, "RA_OF_ASC_NODE": 48.5046, "ARG_OF_PERICENTER": 208.2981, "MEAN_ANOMALY": 273.5002, "EPHEMERIS_TYPE": 0, "CLASSIFICATION_TYPE": "U", "NORAD_CAT_ID": 33966, "ELEMENT_SET_NO": 999, "REV_AT_EPOCH": 88358, "BSTAR": 0.00095201408, "MEAN_MOTION_DOT": 3.671e-05, "MEAN_MOTION_DDOT": 0}, "tle": {"line1": "1 33966U 97051CB  25340.96751337  .00003671  00000+0  95201-3 0  9990", "line2": "2 33966  86.3928  48.5046 0006752 208.2981 273.5002 14.49557640883588"}}, "geometry": {"type": "Point", "coordinates": [45.894841872581516, -32.42713151341754]}}, {"type": "Feature", "properties": {"norad_id": 34071, "name": "IRIDIUM 33 DEB", "group": "iridium-33-debris", "lat": 36.00383997043152, "lon": 22.682042332276183, "alt_km": 724.4165932235965, "timestamp": "2025-12-07T16:44:04.297264+00:00", "meta": {"OBJECT_NAME": "IRIDIUM 33 DEB", "OBJECT_ID": "1997-051CE", "EPOCH": "2025-12-06T15:42:54.692352", "MEAN_MOTION": 14.49424695, "ECCENTRICITY": 0.00097042, "INCLINATION": 86.3458, "RA_OF_ASC_NODE": 20.4733, "ARG_OF_PERICENTER": 123.9868, "MEAN_ANOMALY": 236.226, "EPHEMERIS_TYPE": 0, "CLASSIFICATION_TYPE": "U", "NORAD_CAT_ID": 34071, "ELEMENT_SET_NO": 999, "REV_AT_EPOCH": 88246, "BSTAR": 0.0010899387, "MEAN_MOTION_DOT": 4.19e-05, "MEAN_MOTION_DDOT": 0}, "tle": {"line1": "1 34071U 97051CE  25340.65479968  .00004190  00000+0  10899-2 0  9997", "line2": "2 34071  86.3458  20.4733 0009704 123.9868 236.2260 14.49424695882464"}}, "geometry": {"type": "Point", "coordinates": [22.682042332276183, 36.00383997043152]}}]}